QIANFAN-73              
1 63159U 25046A   25276.61413867  .00000222  00000+0  32597-3 0  9993
2 63159  88.9814 327.2779 0013538 333.7038  26.3425 13.50978951 37941
QIANFAN-74              
1 63160U 25046B   25276.59764954  .00000207  00000+0  30218-3 0  9999
2 63160  88.9814 327.1680 0002245 103.6872 256.4530 13.50968490 38004
QIANFAN-75              
1 63161U 25046C   25276.58532454  .00000269  00000+0  39763-3 0  9999
2 63161  88.9816 327.4018 0014703 336.5913  23.4567 13.50976419 37876
QIANFAN-76              
1 63162U 25046D   25275.09992718  .00000169  00000+0  24320-3 0  9990
2 63162  88.9819 327.5356 0012424 343.2256  16.8483 13.50975020 37688
QIANFAN-77              
1 63163U 25046E   25276.58870582  .00000687  00000+0  49096-3 0  9992
2 63163  88.9812 325.9657 0012549 303.7719  56.2261 13.96062014 38662
QIANFAN-78              
1 63164U 25046F   25270.17873922  .00000155  00000+0  22125-3 0  9997
2 63164  88.9825 327.9067 0014334 359.8558   0.2586 13.50978582 37092
QIANFAN-79              
1 63165U 25046G   25276.57700373  .00000231  00000+0  33872-3 0  9993
2 63165  88.9819 327.3532 0013372 338.5798  21.4792 13.50970840 37901
QIANFAN-80              
1 63166U 25046H   25276.59358207  .00000251  00000+0  36954-3 0  9997
2 63166  88.9815 327.0602 0012521 343.8918  16.1833 13.50971722 38066
